{"fetched_at":"2026-07-11T06:35:51.051Z","source":"https://celestrak.org/NORAD/elements/gp.php?NAME=STRIX&FORMAT=JSON","constellation":"synspective","records":[{"OBJECT_NAME":"STRIX-1","OBJECT_ID":"2022-113A","EPOCH":"2026-07-10T21:30:18.785664","CLASSIFICATION_TYPE":"U","MEAN_MOTION":15.40871755,"ECCENTRICITY":0.0005325,"INCLINATION":97.4487,"RA_OF_ASC_NODE":254.3577,"ARG_OF_PERICENTER":143.2229,"MEAN_ANOMALY":216.9383,"EPHEMERIS_TYPE":0,"NORAD_CAT_ID":53815,"ELEMENT_SET_NO":999,"REV_AT_EPOCH":21109,"BSTAR":0.0004255,"MEAN_MOTION_DOT":0.0001741,"MEAN_MOTION_DDOT":0},{"OBJECT_NAME":"STRIX-3","OBJECT_ID":"2024-047A","EPOCH":"2026-07-10T19:38:37.981824","CLASSIFICATION_TYPE":"U","MEAN_MOTION":15.19766186,"ECCENTRICITY":0.0012499,"INCLINATION":97.6627,"RA_OF_ASC_NODE":167.8494,"ARG_OF_PERICENTER":350.7073,"MEAN_ANOMALY":9.3928,"EPHEMERIS_TYPE":0,"NORAD_CAT_ID":59224,"ELEMENT_SET_NO":999,"REV_AT_EPOCH":12833,"BSTAR":0.00028907,"MEAN_MOTION_DOT":0.00006125,"MEAN_MOTION_DDOT":0},{"OBJECT_NAME":"STRIX-4","OBJECT_ID":"2024-137A","EPOCH":"2026-07-10T20:56:05.322048","CLASSIFICATION_TYPE":"U","MEAN_MOTION":15.33222083,"ECCENTRICITY":0.0015719,"INCLINATION":43.0142,"RA_OF_ASC_NODE":150.1856,"ARG_OF_PERICENTER":101.4616,"MEAN_ANOMALY":258.8004,"EPHEMERIS_TYPE":0,"NORAD_CAT_ID":60352,"ELEMENT_SET_NO":999,"REV_AT_EPOCH":10765,"BSTAR":0.00031315,"MEAN_MOTION_DOT":0.00010034,"MEAN_MOTION_DDOT":0},{"OBJECT_NAME":"STRIX-2","OBJECT_ID":"2024-248A","EPOCH":"2026-07-10T21:04:33.180384","CLASSIFICATION_TYPE":"U","MEAN_MOTION":15.09166779,"ECCENTRICITY":0.0013505,"INCLINATION":97.6294,"RA_OF_ASC_NODE":147.3856,"ARG_OF_PERICENTER":252.3425,"MEAN_ANOMALY":107.6329,"EPHEMERIS_TYPE":0,"NORAD_CAT_ID":62406,"ELEMENT_SET_NO":999,"REV_AT_EPOCH":8516,"BSTAR":0.00023354,"MEAN_MOTION_DOT":0.00003651,"MEAN_MOTION_DDOT":0},{"OBJECT_NAME":"STRIX-5","OBJECT_ID":"2025-229A","EPOCH":"2026-07-10T06:31:08.469984","CLASSIFICATION_TYPE":"U","MEAN_MOTION":15.04569002,"ECCENTRICITY":0.00373403,"INCLINATION":41.9265,"RA_OF_ASC_NODE":159.3746,"ARG_OF_PERICENTER":205.9513,"MEAN_ANOMALY":153.9441,"EPHEMERIS_TYPE":0,"NORAD_CAT_ID":65971,"ELEMENT_SET_NO":999,"REV_AT_EPOCH":4045,"BSTAR":0.00014915832,"MEAN_MOTION_DOT":0.00001963,"MEAN_MOTION_DDOT":0},{"OBJECT_NAME":"STRIX-6","OBJECT_ID":"2026-056A","EPOCH":"2026-07-10T04:10:28.653600","CLASSIFICATION_TYPE":"U","MEAN_MOTION":15.00315366,"ECCENTRICITY":0.00165813,"INCLINATION":50.2818,"RA_OF_ASC_NODE":241.1241,"ARG_OF_PERICENTER":331.9062,"MEAN_ANOMALY":28.0991,"EPHEMERIS_TYPE":0,"NORAD_CAT_ID":68291,"ELEMENT_SET_NO":999,"REV_AT_EPOCH":1672,"BSTAR":0.0001410893,"MEAN_MOTION_DOT":0.00001526,"MEAN_MOTION_DDOT":0},{"OBJECT_NAME":"STRIX-7","OBJECT_ID":"2026-112A","EPOCH":"2026-07-10T18:58:55.026624","CLASSIFICATION_TYPE":"U","MEAN_MOTION":15.01588732,"ECCENTRICITY":0.0024222,"INCLINATION":44.9078,"RA_OF_ASC_NODE":68.4647,"ARG_OF_PERICENTER":183.5361,"MEAN_ANOMALY":176.5343,"EPHEMERIS_TYPE":0,"NORAD_CAT_ID":69177,"ELEMENT_SET_NO":999,"REV_AT_EPOCH":742,"BSTAR":0.00020225,"MEAN_MOTION_DOT":0.00002444,"MEAN_MOTION_DDOT":0},{"OBJECT_NAME":"STRIX-8","OBJECT_ID":"2026-146A","EPOCH":"2026-07-10T18:29:51.415008","CLASSIFICATION_TYPE":"U","MEAN_MOTION":15.04410837,"ECCENTRICITY":0.0007855,"INCLINATION":41.9901,"RA_OF_ASC_NODE":37.6025,"ARG_OF_PERICENTER":352.8931,"MEAN_ANOMALY":7.1783,"EPHEMERIS_TYPE":0,"NORAD_CAT_ID":69701,"ELEMENT_SET_NO":999,"REV_AT_EPOCH":211,"BSTAR":0.00021127,"MEAN_MOTION_DOT":0.00002812,"MEAN_MOTION_DDOT":0}]}
