STRIX-1                 
1 53815U 22113A   26191.89605076  .00017410  00000+0  42550-3 0  9992
2 53815  97.4487 254.3577 0005325 143.2229 216.9383 15.40871755211092
STRIX-3                 
1 59224U 24047A   26191.81849516  .00006125  00000+0  28907-3 0  9992
2 59224  97.6627 167.8494 0012499 350.7073   9.3928 15.19766186128338
STRIX-4                 
1 60352U 24137A   26191.87228382  .00010034  00000+0  31315-3 0  9995
2 60352  43.0142 150.1856 0015719 101.4616 258.8004 15.33222083107655
STRIX-2                 
1 62406U 24248A   26191.87816181  .00003651  00000+0  23354-3 0  9991
2 62406  97.6294 147.3856 0013505 252.3425 107.6329 15.09166779 85167
STRIX-5                 
1 65971U 25229A   26191.27162581  .00001963  00000+0  14916-3 0  9991
2 65971  41.9265 159.3746 0037340 205.9513 153.9441 15.04569002 40456
STRIX-6                 
1 68291U 26056A   26191.17394275  .00001526  00000+0  14109-3 0  9993
2 68291  50.2818 241.1241 0016581 331.9062  28.0991 15.00315366 16727
STRIX-7                 
1 69177U 26112A   26191.79091466  .00002444  00000+0  20225-3 0  9990
2 69177  44.9078  68.4647 0024222 183.5361 176.5343 15.01588732  7420
STRIX-8                 
1 69701U 26146A   26191.77073397  .00002812  00000+0  21127-3 0  9992
2 69701  41.9901  37.6025 0007855 352.8931   7.1783 15.04410837  2111
